[{"OBJECT_NAME":"OTB-3-GAZELLE","OBJECT_ID":"2022-127A","EPOCH":"2026-03-09T22:46:18.860160","MEAN_MOTION":14.42635336,"ECCENTRICITY":0.00141015,"INCLINATION":98.3911,"RA_OF_ASC_NODE":62.1873,"ARG_OF_PERICENTER":125.0273,"MEAN_ANOMALY":235.2243,"EPHEMERIS_TYPE":0,"CLASSIFICATION_TYPE":"U","NORAD_CAT_ID":54023,"ELEMENT_SET_NO":999,"REV_AT_EPOCH":18005,"BSTAR":6.3190972e-5,"MEAN_MOTION_DOT":1.67e-6,"MEAN_MOTION_DDOT":0},{"OBJECT_NAME":"ORBCOMM-X","OBJECT_ID":"1991-050C","EPOCH":"2026-03-09T17:48:45.983232","MEAN_MOTION":14.43517017,"ECCENTRICITY":0.00048445,"INCLINATION":98.3067,"RA_OF_ASC_NODE":134.4839,"ARG_OF_PERICENTER":102.0631,"MEAN_ANOMALY":258.1102,"EPHEMERIS_TYPE":0,"CLASSIFICATION_TYPE":"U","NORAD_CAT_ID":21576,"ELEMENT_SET_NO":999,"REV_AT_EPOCH":82042,"BSTAR":0.0001262966,"MEAN_MOTION_DOT":3.85e-6,"MEAN_MOTION_DDOT":0}]
